start=new Date('2022-09-16T00:00:00.000Z').valueOf();
sats=[{"OBJECT_ID":"2021-125V","OBJECT_NAME":"STARLINK-3291","MEAN_MOTION":"15.08845178","LAUNCH_DATE":"2021-12-18","CENTER_NAME":"EARTH","SITE":"AFWTR","NORAD_CAT_ID":"50175","FILE":"3575050","ELEMENT_SET_NO":"999","COUNTRY_CODE":"US","EPHEMERIS_TYPE":"0","TIME_SYSTEM":"UTC","BSTAR":"0.00022630000000","ECCENTRICITY":"0.00018600","MEAN_MOTION_DDOT":"0.0000000000000","REV_AT_EPOCH":"4474","PERIOD":"95.437","APOAPSIS":"541.016","EPOCH":"2022-09-15T19:47:06.321408","REF_FRAME":"TEME","SEMIMAJOR_AXIS":"6917.865","PERIAPSIS":"538.443","ARG_OF_PERICENTER":"44.8233","TLE_LINE1":"1 50175U 21125V   22258.82437872  .00003316  00000-0  22630-3 0  9998","MEAN_ANOMALY":"315.2909","CLASSIFICATION_TYPE":"U","RCS_SIZE":"LARGE","MEAN_MOTION_DOT":"0.00003316","RA_OF_ASC_NODE":"194.2573","MEAN_ELEMENT_THEORY":"SGP4","TLE_LINE2":"2 50175  53.2160 194.2573 0001860  44.8233 315.2909 15.08845178 44742","GP_ID":"212683164","DECAY_DATE":null,"INCLINATION":"53.2160","OBJECT_TYPE":"PAYLOAD"},{"MEAN_MOTION":"15.08837476","LAUNCH_DATE":"2021-12-18","CENTER_NAME":"EARTH","SITE":"AFWTR","NORAD_CAT_ID":"50176","FILE":"3575041","ELEMENT_SET_NO":"999","OBJECT_ID":"2021-125W","OBJECT_NAME":"STARLINK-3293","BSTAR":"0.00009738300000","ECCENTRICITY":"0.00017480","MEAN_MOTION_DDOT":"0.0000000000000","REV_AT_EPOCH":"4168","PERIOD":"95.438","COUNTRY_CODE":"US","EPHEMERIS_TYPE":"0","TIME_SYSTEM":"UTC","PERIAPSIS":"538.544","ARG_OF_PERICENTER":"52.3332","TLE_LINE1":"1 50176U 21125W   22259.00469317  .00001262  00000-0  97383-4 0  9995","APOAPSIS":"540.962","EPOCH":"2022-09-16T00:06:45.489888","REF_FRAME":"TEME","SEMIMAJOR_AXIS":"6917.888","TLE_LINE2":"2 50176  53.2158 193.4613 0001748  52.3332 307.7818 15.08837476 41682","GP_ID":"212658956","DECAY_DATE":null,"INCLINATION":"53.2158","OBJECT_TYPE":"PAYLOAD","MEAN_ANOMALY":"307.7818","RCS_SIZE":"LARGE","CLASSIFICATION_TYPE":"U","MEAN_MOTION_DOT":"0.00001262","RA_OF_ASC_NODE":"193.4613","MEAN_ELEMENT_THEORY":"SGP4"},{"RCS_SIZE":"LARGE","MEAN_MOTION_DOT":"0.00002637","CLASSIFICATION_TYPE":"U","RA_OF_ASC_NODE":"193.4097","MEAN_ANOMALY":"304.4496","MEAN_ELEMENT_THEORY":"SGP4","GP_ID":"212658963","TLE_LINE2":"2 50177  53.2167 193.4097 0001791  55.6665 304.4496 15.08839389 44282","INCLINATION":"53.2167","OBJECT_TYPE":"PAYLOAD","DECAY_DATE":null,"EPOCH":"2022-09-16T00:22:39.903168","APOAPSIS":"540.986","SEMIMAJOR_AXIS":"6917.882","REF_FRAME":"TEME","PERIAPSIS":"538.508","TLE_LINE1":"1 50177U 21125X   22259.01573962  .00002637  00000-0  18374-3 0  9998","ARG_OF_PERICENTER":"55.6665","EPHEMERIS_TYPE":"0","COUNTRY_CODE":"US","TIME_SYSTEM":"UTC","BSTAR":"0.00018374000000","MEAN_MOTION_DDOT":"0.0000000000000","REV_AT_EPOCH":"4428","PERIOD":"95.438","ECCENTRICITY":"0.00017910","OBJECT_ID":"2021-125X","OBJECT_NAME":"STARLINK-3282","MEAN_MOTION":"15.08839389","LAUNCH_DATE":"2021-12-18","CENTER_NAME":"EARTH","SITE":"AFWTR","ELEMENT_SET_NO":"999","NORAD_CAT_ID":"50177","FILE":"3575041"},{"FILE":"3575041","NORAD_CAT_ID":"50178","ELEMENT_SET_NO":"999","SITE":"AFWTR","LAUNCH_DATE":"2021-12-18","MEAN_MOTION":"15.08840351","CENTER_NAME":"EARTH","OBJECT_NAME":"STARLINK-3284","OBJECT_ID":"2021-125Y","ECCENTRICITY":"0.00016770","PERIOD":"95.438","REV_AT_EPOCH":"4427","MEAN_MOTION_DDOT":"0.0000000000000","BSTAR":"0.00008229700000","TIME_SYSTEM":"UTC","COUNTRY_CODE":"US","EPHEMERIS_TYPE":"0","ARG_OF_PERICENTER":"43.5002","TLE_LINE1":"1 50178U 21125Y   22258.97525094  .00001022  00000-0  82297-4 0  9999","PERIAPSIS":"538.584","REF_FRAME":"TEME","SEMIMAJOR_AXIS":"6917.879","APOAPSIS":"540.904","EPOCH":"2022-09-15T23:24:21.681216","DECAY_DATE":null,"OBJECT_TYPE":"PAYLOAD","INCLINATION":"53.2163","TLE_LINE2":"2 50178  53.2163 193.5709 0001677  43.5002 316.6122 15.08840351 44275","GP_ID":"212658967","MEAN_ELEMENT_THEORY":"SGP4","MEAN_ANOMALY":"316.6122","RA_OF_ASC_NODE":"193.5709","RCS_SIZE":"LARGE","MEAN_MOTION_DOT":"0.00001022","CLASSIFICATION_TYPE":"U"},{"TLE_LINE2":"2 50179  53.2163 193.4403 0001960  47.1835 312.9322 15.08852572 44285","GP_ID":"212659070","DECAY_DATE":null,"INCLINATION":"53.2163","OBJECT_TYPE":"PAYLOAD","MEAN_ANOMALY":"312.9322","CLASSIFICATION_TYPE":"U","RCS_SIZE":"LARGE","MEAN_MOTION_DOT":"0.00001705","RA_OF_ASC_NODE":"193.4403","MEAN_ELEMENT_THEORY":"SGP4","PERIAPSIS":"538.351","ARG_OF_PERICENTER":"47.1835","TLE_LINE1":"1 50179U 21125Z   22259.00837634  .00001705  00000-0  12517-3 0  9996","APOAPSIS":"541.063","EPOCH":"2022-09-16T00:12:03.715776","REF_FRAME":"TEME","SEMIMAJOR_AXIS":"6917.842","BSTAR":"0.00012517000000","ECCENTRICITY":"0.00019600","MEAN_MOTION_DDOT":"0.0000000000000","PERIOD":"95.437","REV_AT_EPOCH":"4428","COUNTRY_CODE":"US","EPHEMERIS_TYPE":"0","TIME_SYSTEM":"UTC","CENTER_NAME":"EARTH","LAUNCH_DATE":"2021-12-18","MEAN_MOTION":"15.08852572","SITE":"AFWTR","NORAD_CAT_ID":"50179","FILE":"3575041","ELEMENT_SET_NO":"999","OBJECT_ID":"2021-125Z","OBJECT_NAME":"STARLINK-3283"},{"DECAY_DATE":null,"OBJECT_TYPE":"PAYLOAD","INCLINATION":"53.2165","TLE_LINE2":"2 50180  53.2165 193.5064 0001655  53.6076 306.5069 15.08831245 41685","GP_ID":"212658959","MEAN_ELEMENT_THEORY":"SGP4","MEAN_ANOMALY":"306.5069","RA_OF_ASC_NODE":"193.5064","MEAN_MOTION_DOT":"0.00000548","RCS_SIZE":"LARGE","CLASSIFICATION_TYPE":"U","ARG_OF_PERICENTER":"53.6076","TLE_LINE1":"1 50180U 21125AA  22258.99365989  .00000548  00000-0  52550-4 0  9990","PERIAPSIS":"538.627","REF_FRAME":"TEME","SEMIMAJOR_AXIS":"6917.907","APOAPSIS":"540.917","EPOCH":"2022-09-15T23:50:52.214496","ECCENTRICITY":"0.00016550","PERIOD":"95.438","REV_AT_EPOCH":"4168","MEAN_MOTION_DDOT":"0.0000000000000","BSTAR":"0.00005255000000","TIME_SYSTEM":"UTC","COUNTRY_CODE":"US","EPHEMERIS_TYPE":"0","FILE":"3575041","NORAD_CAT_ID":"50180","ELEMENT_SET_NO":"999","SITE":"AFWTR","LAUNCH_DATE":"2021-12-18","MEAN_MOTION":"15.08831245","CENTER_NAME":"EARTH","OBJECT_NAME":"STARLINK-3265","OBJECT_ID":"2021-125AA"},{"BSTAR":"0.00010027000000","ECCENTRICITY":"0.00017490","REV_AT_EPOCH":"4428","PERIOD":"95.438","MEAN_MOTION_DDOT":"0.0000000000000","COUNTRY_CODE":"US","EPHEMERIS_TYPE":"0","TIME_SYSTEM":"UTC","SITE":"AFWTR","LAUNCH_DATE":"2021-12-18","CENTER_NAME":"EARTH","MEAN_MOTION":"15.08830571","FILE":"3575041","NORAD_CAT_ID":"50181","ELEMENT_SET_NO":"999","OBJECT_ID":"2021-125AB","OBJECT_NAME":"STARLINK-3285","TLE_LINE2":"2 50181  53.2184 193.5379 0001749  42.4439 317.6688 15.08830571 44289","GP_ID":"212658964","DECAY_DATE":null,"OBJECT_TYPE":"PAYLOAD","INCLINATION":"53.2184","MEAN_ANOMALY":"317.6688","RA_OF_ASC_NODE":"193.5379","RCS_SIZE":"LARGE","CLASSIFICATION_TYPE":"U","MEAN_MOTION_DOT":"0.00001308","MEAN_ELEMENT_THEORY":"SGP4","PERIAPSIS":"538.564","ARG_OF_PERICENTER":"42.4439","TLE_LINE1":"1 50181U 21125AB  22258.98629745  .00001308  00000-0  10027-3 0  9990","APOAPSIS":"540.984","EPOCH":"2022-09-15T23:40:16.099680","REF_FRAME":"TEME","SEMIMAJOR_AXIS":"6917.909"},{"MEAN_ANOMALY":"311.1115","CLASSIFICATION_TYPE":"U","RCS_SIZE":"LARGE","MEAN_MOTION_DOT":"0.00001747","RA_OF_ASC_NODE":"193.5738","MEAN_ELEMENT_THEORY":"SGP4","TLE_LINE2":"2 50182  53.2190 193.5738 0002016  49.0051 311.1115 15.08842916 44287","GP_ID":"212659074","DECAY_DATE":null,"INCLINATION":"53.2190","OBJECT_TYPE":"PAYLOAD","APOAPSIS":"541.131","EPOCH":"2022-09-15T23:29:39.420672","REF_FRAME":"TEME","SEMIMAJOR_AXIS":"6917.871","PERIAPSIS":"538.342","ARG_OF_PERICENTER":"49.0051","TLE_LINE1":"1 50182U 21125AC  22258.97892848  .00001747  00000-0  12785-3 0  9996","COUNTRY_CODE":"US","EPHEMERIS_TYPE":"0","TIME_SYSTEM":"UTC","BSTAR":"0.00012785000000","ECCENTRICITY":"0.00020160","MEAN_MOTION_DDOT":"0.0000000000000","PERIOD":"95.437","REV_AT_EPOCH":"4428","OBJECT_ID":"2021-125AC","OBJECT_NAME":"STARLINK-3277","CENTER_NAME":"EARTH","LAUNCH_DATE":"2021-12-18","MEAN_MOTION":"15.08842916","SITE":"AFWTR","NORAD_CAT_ID":"50182","FILE":"3575041","ELEMENT_SET_NO":"999"},{"ARG_OF_PERICENTER":"60.6987","TLE_LINE1":"1 50183U 21125AD  22258.85013404  .00003026  00000-0  20815-3 0  9992","PERIAPSIS":"538.628","REF_FRAME":"TEME","SEMIMAJOR_AXIS":"6917.874","APOAPSIS":"540.851","EPOCH":"2022-09-15T20:24:11.581056","DECAY_DATE":null,"INCLINATION":"53.2169","OBJECT_TYPE":"PAYLOAD","TLE_LINE2":"2 50183  53.2169 194.1572 0001606  60.6987 299.4165 15.08841928 44799","GP_ID":"212683165","MEAN_ELEMENT_THEORY":"SGP4","MEAN_ANOMALY":"299.4165","MEAN_MOTION_DOT":"0.00003026","RCS_SIZE":"LARGE","CLASSIFICATION_TYPE":"U","RA_OF_ASC_NODE":"194.1572","NORAD_CAT_ID":"50183","FILE":"3575050","ELEMENT_SET_NO":"999","CENTER_NAME":"EARTH","LAUNCH_DATE":"2021-12-18","MEAN_MOTION":"15.08841928","SITE":"AFWTR","OBJECT_NAME":"STARLINK-3281","OBJECT_ID":"2021-125AD","ECCENTRICITY":"0.00016060","MEAN_MOTION_DDOT":"0.0000000000000","REV_AT_EPOCH":"4479","PERIOD":"95.437","BSTAR":"0.00020815000000","TIME_SYSTEM":"UTC","COUNTRY_CODE":"US","EPHEMERIS_TYPE":"0"},{"BSTAR":"0.00009673500000","REV_AT_EPOCH":"4429","PERIOD":"95.438","MEAN_MOTION_DDOT":"0.0000000000000","ECCENTRICITY":"0.00017010","EPHEMERIS_TYPE":"0","COUNTRY_CODE":"US","TIME_SYSTEM":"UTC","SITE":"AFWTR","LAUNCH_DATE":"2021-12-18","CENTER_NAME":"EARTH","MEAN_MOTION":"15.08834509","ELEMENT_SET_NO":"999","FILE":"3575041","NORAD_CAT_ID":"50185","OBJECT_ID":"2021-125AF","OBJECT_NAME":"STARLINK-3279","GP_ID":"212659063","TLE_LINE2":"2 50185  53.2178 193.5220 0001701  53.2529 306.8619 15.08834509 44299","OBJECT_TYPE":"PAYLOAD","INCLINATION":"53.2178","DECAY_DATE":null,"RA_OF_ASC_NODE":"193.5220","RCS_SIZE":"LARGE","MEAN_MOTION_DOT":"0.00001252","CLASSIFICATION_TYPE":"U","MEAN_ANOMALY":"306.8619","MEAN_ELEMENT_THEORY":"SGP4","PERIAPSIS":"538.585","TLE_LINE1":"1 50185U 21125AF  22258.98997523  .00001252  00000-0  96735-4 0  9995","ARG_OF_PERICENTER":"53.2529","EPOCH":"2022-09-15T23:45:33.859872","APOAPSIS":"540.939","SEMIMAJOR_AXIS":"6917.897","REF_FRAME":"TEME"}];
